CRE (WAAS/PRN 138)      
1 28868U 05036A   25067.44971205 -.00000090  00000+0  00000+0 0  9996
2 28868   3.1155  82.3903 0002577 280.2862 218.2737  1.00272372 41787
IOR-W (EGNOS/PRN 126)   
1 28899U 05044A   25067.73725418 -.00000275  00000+0  00000+0 0  9999
2 28899   4.4983  43.3032 0002334 313.6940 218.5780  1.00272945 70850
GSAT-8 (GAGAN/PRN 127)  
1 37605U 11022A   25068.21433490  .00000068  00000+0  00000+0 0  9996
2 37605   0.9265  87.7986 0007327 209.5576   1.9925  1.00270522 50586
LUCH 5A (SDCM/PRN 140)  
1 37951U 11074B   25067.78983740 -.00000065  00000+0  00000+0 0  9994
2 37951   7.5658  80.7989 0002706 247.4722 289.6450  1.00271495 48388
SES-5 (EGNOS/PRN 136)   
1 38652U 12036A   25067.88447529  .00000017  00000+0  00000+0 0  9999
2 38652   0.0564 313.5578 0001921  23.1536 153.4736  1.00272279 46409
GSAT-10 (GAGAN/PRN 128) 
1 38779U 12051B   25068.11975407 -.00000182  00000+0  00000+0 0  9998
2 38779   0.0830 269.4839 0004299 171.5670 212.1388  1.00270533 45622
LUCH 5B (SDCM/PRN 125)  
1 38977U 12061A   25067.25351175 -.00000150  00000+0  00000+0 0  9998
2 38977   9.4701  54.3276 0002931 208.0493 338.7069  1.00273156 44936
ASTRA 5B (EGNOS/PRN 123)
1 39617U 14011B   25067.82765363  .00000120  00000+0  00000+0 0  9994
2 39617   0.0213 348.2717 0003767 338.8386 161.0758  1.00270966 40001
LUCH 5V (SDCM/PRN 141)  
1 39727U 14023A   25067.89004885 -.00000285  00000+0  00000+0 0  9994
2 39727   3.9687  74.0592 0002821 276.0792 231.7982  1.00274423 39698
GSAT-15 (GAGAN/PRN 139) 
1 41028U 15065A   25068.13247079 -.00000275  00000+0  00000+0 0  9999
2 41028   0.0677 272.8237 0001604  91.7133 303.7091  1.00271986 34197
E 117 W B (WAAS/PRN 131)
1 41589U 16038B   25067.52888764 -.00000027  00000+0  00000+0 0  9991
2 41589   0.0353  14.4507 0000309  42.6665 182.7532  1.00272810 31993
SES-15 (WAAS/PRN 133)   
1 42709U 17026A   25068.08827698  .00000043  00000+0  00000+0 0  9992
2 42709   0.0355  64.6689 0000586 261.2451 103.6963  1.00269563 29524
QZS-2 (QZSS/PRN 194)    
1 42738U 17028A   25061.83100253 -.00000127  00000+0  00000+0 0  9997
2 42738  40.1616 250.0168 0745867 270.2730  81.0383  1.00263772  2906
QZS-3 (QZSS/PRN 199)    
1 42917U 17048A   25067.99621984 -.00000365  00000+0  00000+0 0  9994
2 42917   0.0570 155.9950 0002524 191.9928 304.5942  1.00271512 27705
QZS-4 (QZSS/PRN 195)    
1 42965U 17062A   25067.79309616 -.00000343  00000+0  00000+0 0  9992
2 42965  40.3812 349.4219 0748986 269.7746 332.9509  1.00280073 27147
BEIDOU-3 G1 (PRN 130)   
1 43683U 18085A   25067.99873936 -.00000295  00000+0  00000+0 0  9995
2 43683   2.8530 100.7667 0002686 354.2362 211.4913  1.00270734 23389
BEIDOU-3 G2 (PRN 144)   
1 45344U 20017A   25067.82822516 -.00000157  00000+0  00000+0 0  9996
2 45344   2.7026  38.1218 0003139 301.5317 205.3011  1.00272101 18597
BEIDOU-3 G3 (PRN 143)   
1 45807U 20040A   25067.77870596 -.00000370  00000+0  00000+0 0  9998
2 45807   1.3270  61.2176 0003214 312.8683 183.5143  1.00272015 17408
GALAXY 30 (WAAS/PRN 135)
1 46114U 20056C   25067.42920861  .00000021  00000+0  00000+0 0  9992
2 46114   0.0256 139.4812 0001830 215.9715 200.4418  1.00271830 16627
QZS-1R (QZSS/PRN 196)   
1 49336U 21096A   25067.93809687 -.00000261  00000+0  00000+0 0  9991
2 49336  36.4934  86.5169 0749506 269.6291 283.9999  1.00287796 12335
